STARLINK-36813          
1 67892U 26035P   26073.91668981  .00044281  00000+0  23131-3 0  9995
2 67892  97.2880   6.5780 0001433  55.8038  85.0321 15.80762428  4594
STARLINK-36803          
1 67893U 26035Q   26073.91668981  .00137849  00000+0  71180-3 0  9996
2 67893  97.2876   6.5723 0001706  94.7166  20.4698 15.80731863  4593
STARLINK-36846          
1 67894U 26035R   26073.91668981 -.00050073  00000+0 -33604-3 0  9991
2 67894  97.2847   6.5695 0001521  79.5477  25.1324 15.75242164  4594
STARLINK-36866          
1 67895U 26035S   26073.91668981 -.00216050  00000+0 -11551-2 0  9997
2 67895  97.2875   6.5761 0001472 103.2483  24.7843 15.80818548  4599
STARLINK-36877          
1 67896U 26035T   26073.91668981  .00101344  00000+0  52617-3 0  9994
2 67896  97.2875   6.5737 0001706 118.0864   1.4171 15.80712267  4597
STARLINK-36870          
1 67897U 26035U   26073.91668981  .00118424  00000+0  61354-3 0  9990
2 67897  97.2878   6.5765 0001412  72.5307  59.7833 15.80711774  4595
STARLINK-36810          
1 67898U 26035V   26073.91668981  .00069464  00000+0  36215-3 0  9998
2 67898  97.2878   6.5789 0001362 104.3248  32.2693 15.80716163  4591
STARLINK-36878          
1 67899U 26035W   26073.91668981  .00081388  00000+0  42308-3 0  9998
2 67899  97.2877   6.5815 0001531  76.5905  68.5245 15.80743373  4597
STARLINK-36361          
1 67900U 26035X   26073.91668981  .00014032  00000+0  74128-4 0  9999
2 67900  97.2878   6.5836 0001759  64.6095  84.7948 15.80741030  4592
STARLINK-36336          
1 67901U 26035Y   26073.91668981  .00128566  00000+0  66509-3 0  9991
2 67901  97.2873   6.5909 0001723  62.7126  99.5064 15.80716415  4642
STARLINK-36876          
1 67902U 26035Z   26073.91668981  .00054750  00000+0  28594-3 0  9997
2 67902  97.2874   6.5882 0001611  88.6078  65.0887 15.80726297  4597
STARLINK-36257          
1 67903U 26035AA  26073.91668981 -.00081821  00000+0 -55200-3 0  9993
2 67903  97.2849   6.5846 0001069  80.2788  60.4421 15.75230453  4640
