CCSDS_OMM_VERS = 2.0
CREATION_DATE  = 
ORIGINATOR     = 

OBJECT_NAME    = STARLINK-36813
OBJECT_ID      = 2026-035P
CENTER_NAME    = EARTH
REF_FRAME      = TEME
TIME_SYSTEM    = UTC
MEAN_ELEMENT_THEORY = SGP/SGP4

EPOCH          = 2026-03-14T22:00:01.999584
MEAN_MOTION    = 15.80762428
ECCENTRICITY   = .00014337
INCLINATION    = 97.2880
RA_OF_ASC_NODE = 6.5780
ARG_OF_PERICENTER = 55.8038
MEAN_ANOMALY   = 85.0321

EPHEMERIS_TYPE = 0
CLASSIFICATION_TYPE = U
NORAD_CAT_ID   = 67892
ELEMENT_SET_NO = 999
REV_AT_EPOCH   = 459
BSTAR          = .23130527E-3
MEAN_MOTION_DOT = .44281E-3
MEAN_MOTION_DDOT = 0

CCSDS_OMM_VERS = 2.0
CREATION_DATE  = 
ORIGINATOR     = 

OBJECT_NAME    = STARLINK-36803
OBJECT_ID      = 2026-035Q
CENTER_NAME    = EARTH
REF_FRAME      = TEME
TIME_SYSTEM    = UTC
MEAN_ELEMENT_THEORY = SGP/SGP4

EPOCH          = 2026-03-14T22:00:01.999584
MEAN_MOTION    = 15.80731863
ECCENTRICITY   = .00017064
INCLINATION    = 97.2876
RA_OF_ASC_NODE = 6.5723
ARG_OF_PERICENTER = 94.7166
MEAN_ANOMALY   = 20.4698

EPHEMERIS_TYPE = 0
CLASSIFICATION_TYPE = U
NORAD_CAT_ID   = 67893
ELEMENT_SET_NO = 999
REV_AT_EPOCH   = 459
BSTAR          = .71180098E-3
MEAN_MOTION_DOT = .137849E-2
MEAN_MOTION_DDOT = 0

CCSDS_OMM_VERS = 2.0
CREATION_DATE  = 
ORIGINATOR     = 

OBJECT_NAME    = STARLINK-36846
OBJECT_ID      = 2026-035R
CENTER_NAME    = EARTH
REF_FRAME      = TEME
TIME_SYSTEM    = UTC
MEAN_ELEMENT_THEORY = SGP/SGP4

EPOCH          = 2026-03-14T22:00:01.999584
MEAN_MOTION    = 15.75242164
ECCENTRICITY   = .00015211
INCLINATION    = 97.2847
RA_OF_ASC_NODE = 6.5695
ARG_OF_PERICENTER = 79.5477
MEAN_ANOMALY   = 25.1324

EPHEMERIS_TYPE = 0
CLASSIFICATION_TYPE = U
NORAD_CAT_ID   = 67894
ELEMENT_SET_NO = 999
REV_AT_EPOCH   = 459
BSTAR          = -.33603967E-3
MEAN_MOTION_DOT = -.50073E-3
MEAN_MOTION_DDOT = 0

CCSDS_OMM_VERS = 2.0
CREATION_DATE  = 
ORIGINATOR     = 

OBJECT_NAME    = STARLINK-36866
OBJECT_ID      = 2026-035S
CENTER_NAME    = EARTH
REF_FRAME      = TEME
TIME_SYSTEM    = UTC
MEAN_ELEMENT_THEORY = SGP/SGP4

EPOCH          = 2026-03-14T22:00:01.999584
MEAN_MOTION    = 15.80818548
ECCENTRICITY   = .00014722
INCLINATION    = 97.2875
RA_OF_ASC_NODE = 6.5761
ARG_OF_PERICENTER = 103.2483
MEAN_ANOMALY   = 24.7843

EPHEMERIS_TYPE = 0
CLASSIFICATION_TYPE = U
NORAD_CAT_ID   = 67895
ELEMENT_SET_NO = 999
REV_AT_EPOCH   = 459
BSTAR          = -.11551042E-2
MEAN_MOTION_DOT = -.21605E-2
MEAN_MOTION_DDOT = 0

CCSDS_OMM_VERS = 2.0
CREATION_DATE  = 
ORIGINATOR     = 

OBJECT_NAME    = STARLINK-36877
OBJECT_ID      = 2026-035T
CENTER_NAME    = EARTH
REF_FRAME      = TEME
TIME_SYSTEM    = UTC
MEAN_ELEMENT_THEORY = SGP/SGP4

EPOCH          = 2026-03-14T22:00:01.999584
MEAN_MOTION    = 15.80712267
ECCENTRICITY   = .00017069
INCLINATION    = 97.2875
RA_OF_ASC_NODE = 6.5737
ARG_OF_PERICENTER = 118.0864
MEAN_ANOMALY   = 1.4171

EPHEMERIS_TYPE = 0
CLASSIFICATION_TYPE = U
NORAD_CAT_ID   = 67896
ELEMENT_SET_NO = 999
REV_AT_EPOCH   = 459
BSTAR          = .52616816E-3
MEAN_MOTION_DOT = .101344E-2
MEAN_MOTION_DDOT = 0

CCSDS_OMM_VERS = 2.0
CREATION_DATE  = 
ORIGINATOR     = 

OBJECT_NAME    = STARLINK-36870
OBJECT_ID      = 2026-035U
CENTER_NAME    = EARTH
REF_FRAME      = TEME
TIME_SYSTEM    = UTC
MEAN_ELEMENT_THEORY = SGP/SGP4

EPOCH          = 2026-03-14T22:00:01.999584
MEAN_MOTION    = 15.80711774
ECCENTRICITY   = .00014123
INCLINATION    = 97.2878
RA_OF_ASC_NODE = 6.5765
ARG_OF_PERICENTER = 72.5307
MEAN_ANOMALY   = 59.7833

EPHEMERIS_TYPE = 0
CLASSIFICATION_TYPE = U
NORAD_CAT_ID   = 67897
ELEMENT_SET_NO = 999
REV_AT_EPOCH   = 459
BSTAR          = .61354468E-3
MEAN_MOTION_DOT = .118424E-2
MEAN_MOTION_DDOT = 0

CCSDS_OMM_VERS = 2.0
CREATION_DATE  = 
ORIGINATOR     = 

OBJECT_NAME    = STARLINK-36810
OBJECT_ID      = 2026-035V
CENTER_NAME    = EARTH
REF_FRAME      = TEME
TIME_SYSTEM    = UTC
MEAN_ELEMENT_THEORY = SGP/SGP4

EPOCH          = 2026-03-14T22:00:01.999584
MEAN_MOTION    = 15.80716163
ECCENTRICITY   = .00013629
INCLINATION    = 97.2878
RA_OF_ASC_NODE = 6.5789
ARG_OF_PERICENTER = 104.3248
MEAN_ANOMALY   = 32.2693

EPHEMERIS_TYPE = 0
CLASSIFICATION_TYPE = U
NORAD_CAT_ID   = 67898
ELEMENT_SET_NO = 999
REV_AT_EPOCH   = 459
BSTAR          = .36215206E-3
MEAN_MOTION_DOT = .69464E-3
MEAN_MOTION_DDOT = 0

CCSDS_OMM_VERS = 2.0
CREATION_DATE  = 
ORIGINATOR     = 

OBJECT_NAME    = STARLINK-36878
OBJECT_ID      = 2026-035W
CENTER_NAME    = EARTH
REF_FRAME      = TEME
TIME_SYSTEM    = UTC
MEAN_ELEMENT_THEORY = SGP/SGP4

EPOCH          = 2026-03-14T22:00:01.999584
MEAN_MOTION    = 15.80743373
ECCENTRICITY   = .00015318
INCLINATION    = 97.2877
RA_OF_ASC_NODE = 6.5815
ARG_OF_PERICENTER = 76.5905
MEAN_ANOMALY   = 68.5245

EPHEMERIS_TYPE = 0
CLASSIFICATION_TYPE = U
NORAD_CAT_ID   = 67899
ELEMENT_SET_NO = 999
REV_AT_EPOCH   = 459
BSTAR          = .42308219E-3
MEAN_MOTION_DOT = .81388E-3
MEAN_MOTION_DDOT = 0

CCSDS_OMM_VERS = 2.0
CREATION_DATE  = 
ORIGINATOR     = 

OBJECT_NAME    = STARLINK-36361
OBJECT_ID      = 2026-035X
CENTER_NAME    = EARTH
REF_FRAME      = TEME
TIME_SYSTEM    = UTC
MEAN_ELEMENT_THEORY = SGP/SGP4

EPOCH          = 2026-03-14T22:00:01.999584
MEAN_MOTION    = 15.80741030
ECCENTRICITY   = .00017592
INCLINATION    = 97.2878
RA_OF_ASC_NODE = 6.5836
ARG_OF_PERICENTER = 64.6095
MEAN_ANOMALY   = 84.7948

EPHEMERIS_TYPE = 0
CLASSIFICATION_TYPE = U
NORAD_CAT_ID   = 67900
ELEMENT_SET_NO = 999
REV_AT_EPOCH   = 459
BSTAR          = .74128483E-4
MEAN_MOTION_DOT = .14032E-3
MEAN_MOTION_DDOT = 0

CCSDS_OMM_VERS = 2.0
CREATION_DATE  = 
ORIGINATOR     = 

OBJECT_NAME    = STARLINK-36336
OBJECT_ID      = 2026-035Y
CENTER_NAME    = EARTH
REF_FRAME      = TEME
TIME_SYSTEM    = UTC
MEAN_ELEMENT_THEORY = SGP/SGP4

EPOCH          = 2026-03-14T22:00:01.999584
MEAN_MOTION    = 15.80716415
ECCENTRICITY   = .0001723
INCLINATION    = 97.2873
RA_OF_ASC_NODE = 6.5909
ARG_OF_PERICENTER = 62.7126
MEAN_ANOMALY   = 99.5064

EPHEMERIS_TYPE = 0
CLASSIFICATION_TYPE = U
NORAD_CAT_ID   = 67901
ELEMENT_SET_NO = 999
REV_AT_EPOCH   = 464
BSTAR          = .66509171E-3
MEAN_MOTION_DOT = .128566E-2
MEAN_MOTION_DDOT = 0

CCSDS_OMM_VERS = 2.0
CREATION_DATE  = 
ORIGINATOR     = 

OBJECT_NAME    = STARLINK-36876
OBJECT_ID      = 2026-035Z
CENTER_NAME    = EARTH
REF_FRAME      = TEME
TIME_SYSTEM    = UTC
MEAN_ELEMENT_THEORY = SGP/SGP4

EPOCH          = 2026-03-14T22:00:01.999584
MEAN_MOTION    = 15.80726297
ECCENTRICITY   = .00016116
INCLINATION    = 97.2874
RA_OF_ASC_NODE = 6.5882
ARG_OF_PERICENTER = 88.6078
MEAN_ANOMALY   = 65.0887

EPHEMERIS_TYPE = 0
CLASSIFICATION_TYPE = U
NORAD_CAT_ID   = 67902
ELEMENT_SET_NO = 999
REV_AT_EPOCH   = 459
BSTAR          = .28593958E-3
MEAN_MOTION_DOT = .5475E-3
MEAN_MOTION_DDOT = 0

CCSDS_OMM_VERS = 2.0
CREATION_DATE  = 
ORIGINATOR     = 

OBJECT_NAME    = STARLINK-36257
OBJECT_ID      = 2026-035AA
CENTER_NAME    = EARTH
REF_FRAME      = TEME
TIME_SYSTEM    = UTC
MEAN_ELEMENT_THEORY = SGP/SGP4

EPOCH          = 2026-03-14T22:00:01.999584
MEAN_MOTION    = 15.75230453
ECCENTRICITY   = .00010697
INCLINATION    = 97.2849
RA_OF_ASC_NODE = 6.5846
ARG_OF_PERICENTER = 80.2788
MEAN_ANOMALY   = 60.4421

EPHEMERIS_TYPE = 0
CLASSIFICATION_TYPE = U
NORAD_CAT_ID   = 67903
ELEMENT_SET_NO = 999
REV_AT_EPOCH   = 464
BSTAR          = -.55200149E-3
MEAN_MOTION_DOT = -.81821E-3
MEAN_MOTION_DDOT = 0

